{"type": "FeatureCollection", "features": [ {"type": "Feature", "properties": {"norad_id": 43437, "name": "SENTINEL-3B", "group": "resource", "lat": 34.52585204144393, "lon": 59.39136786836123, "alt_km": 799.6682311695995, "timestamp": "2025-12-26T09:30:53.285544+00:00", "meta": {"OBJECT_NAME": "SENTINEL-3B", "OBJECT_ID": "2018-039A", "EPOCH": "2025-12-26T04:18:07.439328", "MEAN_MOTION": 14.26739121, "ECCENTRICITY": 0.0001576, "INCLINATION": 98.6249, "RA_OF_ASC_NODE": 65.1708, "ARG_OF_PERICENTER": 88.4171, "MEAN_ANOMALY": 271.719, "EPHEMERIS_TYPE": 0, "CLASSIFICATION_TYPE": "U", "NORAD_CAT_ID": 43437, "ELEMENT_SET_NO": 999, "REV_AT_EPOCH": 39945, "BSTAR": 7.3873e-05, "MEAN_MOTION_DOT": 1.35e-06, "MEAN_MOTION_DDOT": 0}, "tle": {"line1": "1 43437U 18039A   25360.17925277  .00000135  00000+0  73873-4 0  9998", "line2": "2 43437  98.6249  65.1708 0001576  88.4171 271.7190 14.26739121399459"}}, "geometry": {"type": "Point", "coordinates": [59.39136786836123, 34.52585204144393]}}, {"type": "Feature", "properties": {"norad_id": 43461, "name": "GAOFEN-5 01", "group": "resource", "lat": -56.695869872490455, "lon": 130.55023092033196, "alt_km": 698.4796476553402, "timestamp": "2025-12-26T09:30:53.285555+00:00", "meta": {"OBJECT_NAME": "GAOFEN-5 01", "OBJECT_ID": "2018-043A", "EPOCH": "2025-12-25T20:55:11.303904", "MEAN_MOTION": 14.60423654, "ECCENTRICITY": 5.489e-05, "INCLINATION": 98.4347, "RA_OF_ASC_NODE": 323.0695, "ARG_OF_PERICENTER": 234.7022, "MEAN_ANOMALY": 125.4127, "EPHEMERIS_TYPE": 0, "CLASSIFICATION_TYPE": "U", "NORAD_CAT_ID": 43461, "ELEMENT_SET_NO": 999, "REV_AT_EPOCH": 40639, "BSTAR": 0.00011249233, "MEAN_MOTION_DOT": 4.96e-06, "MEAN_MOTION_DDOT": 0}, "tle": {"line1": "1 43461U 18043A   25359.87165861  .00000496  00000+0  11249-3 0  9998", "line2": "2 43461  98.4347 323.0695 0000548 234.7022 125.4127 14.60423654406399"}}, "geometry": {"type": "Point", "coordinates": [130.55023092033196, -56.695869872490455]}}, {"type": "Feature", "properties": {"norad_id": 43484, "name": "GAOFEN-6", "group": "resource", "lat": -53.71786211517765, "lon": 74.96661322546008, "alt_km": 645.1760419867787, "timestamp": "2025-12-26T09:30:53.285566+00:00", "meta": {"OBJECT_NAME": "GAOFEN-6", "OBJECT_ID": "2018-048A", "EPOCH": "2025-12-26T04:52:53.627808", "MEAN_MOTION": 14.76588963, "ECCENTRICITY": 0.0012471, "INCLINATION": 97.8009, "RA_OF_ASC_NODE": 64.017, "ARG_OF_PERICENTER": 23.43, "MEAN_ANOMALY": 336.7476, "EPHEMERIS_TYPE": 0, "CLASSIFICATION_TYPE": "U", "NORAD_CAT_ID": 43484, "ELEMENT_SET_NO": 999, "REV_AT_EPOCH": 40786, "BSTAR": 0.00010831, "MEAN_MOTION_DOT": 7.07e-06, "MEAN_MOTION_DDOT": 0}, "tle": {"line1": "1 43484U 18048A   25360.20339847  .00000707  00000+0  10831-3 0  9995", "line2": "2 43484  97.8009  64.0170 0012471  23.4300 336.7476 14.76588963407861"}}, "geometry": {"type": "Point", "coordinates": [74.96661322546008, -53.71786211517765]}}, {"type": "Feature", "properties": {"norad_id": 43585, "name": "GAOFEN-11 01", "group": "resource", "lat": 82.20837819809398, "lon": -3.400471498979313, "alt_km": 412.84542346398575, "timestamp": "2025-12-26T09:30:53.285576+00:00", "meta": {"OBJECT_NAME": "GAOFEN-11 01", "OBJECT_ID": "2018-063A", "EPOCH": "2025-12-26T04:29:29.339232", "MEAN_MOTION": 15.49603784, "ECCENTRICITY": 0.0003948, "INCLINATION": 97.1537, "RA_OF_ASC_NODE": 63.0112, "ARG_OF_PERICENTER": 242.832, "MEAN_ANOMALY": 117.2529, "EPHEMERIS_TYPE": 0, "CLASSIFICATION_TYPE": "U", "NORAD_CAT_ID": 43585, "ELEMENT_SET_NO": 999, "REV_AT_EPOCH": 41350, "BSTAR": 0.00036884, "MEAN_MOTION_DOT": 0.00020322, "MEAN_MOTION_DDOT": 0}, "tle": {"line1": "1 43585U 18063A   25360.18714513  .00020322  00000+0  36884-3 0  9999", "line2": "2 43585  97.1537  63.0112 0003948 242.8320 117.2529 15.49603784413504"}}, "geometry": {"type": "Point", "coordinates": [-3.400471498979313, 82.20837819809398]}}, {"type": "Feature", "properties": {"norad_id": 43613, "name": "ICESAT-2", "group": "resource", "lat": -41.694369064175085, "lon": 62.635899182395946, "alt_km": 488.62470313650556, "timestamp": "2025-12-26T09:30:53.285594+00:00", "meta": {"OBJECT_NAME": "ICESAT-2", "OBJECT_ID": "2018-070A", "EPOCH": "2025-12-26T02:15:43.752960", "MEAN_MOTION": 15.28258923, "ECCENTRICITY": 0.0003162, "INCLINATION": 92.0035, "RA_OF_ASC_NODE": 244.3414, "ARG_OF_PERICENTER": 109.1167, "MEAN_ANOMALY": 251.0425, "EPHEMERIS_TYPE": 0, "CLASSIFICATION_TYPE": "U", "NORAD_CAT_ID": 43613, "ELEMENT_SET_NO": 999, "REV_AT_EPOCH": 40602, "BSTAR": 0.00045969, "MEAN_MOTION_DOT": 0.00012657, "MEAN_MOTION_DDOT": 0}, "tle": {"line1": "1 43613U 18070A   25360.09425640  .00012657  00000+0  45969-3 0  9995", "line2": "2 43613  92.0035 244.3414 0003162 109.1167 251.0425 15.28258923406023"}}, "geometry": {"type": "Point", "coordinates": [62.635899182395946, -41.694369064175085]}}, {"type": "Feature", "properties": {"norad_id": 43719, "name": "HYSIS", "group": "resource", "lat": 79.81263357314381, "lon": 11.736981921891418, "alt_km": 625.6268204533108, "timestamp": "2025-12-26T09:30:53.285604+00:00", "meta": {"OBJECT_NAME": "HYSIS", "OBJECT_ID": "2018-096A", "EPOCH": "2025-12-26T04:15:56.323872", "MEAN_MOTION": 14.78680383, "ECCENTRICITY": 7.76e-05, "INCLINATION": 98.0076, "RA_OF_ASC_NODE": 63.0888, "ARG_OF_PERICENTER": 56.1412, "MEAN_ANOMALY": 303.9873, "EPHEMERIS_TYPE": 0, "CLASSIFICATION_TYPE": "U", "NORAD_CAT_ID": 43719, "ELEMENT_SET_NO": 999, "REV_AT_EPOCH": 38185, "BSTAR": 0.00015456, "MEAN_MOTION_DOT": 1.081e-05, "MEAN_MOTION_DDOT": 0}, "tle": {"line1": "1 43719U 18096A   25360.17773523  .00001081  00000+0  15456-3 0  9992", "line2": "2 43719  98.0076  63.0888 0000776  56.1412 303.9873 14.78680383381854"}}, "geometry": {"type": "Point", "coordinates": [11.736981921891418, 79.81263357314381]}}, {"type": "Feature", "properties": {"norad_id": 43783, "name": "KAZSTSAT", "group": "resource", "lat": -73.7634416547906, "lon": -171.71326527813932, "alt_km": 571.8599418898739, "timestamp": "2025-12-26T09:30:53.285614+00:00", "meta": {"OBJECT_NAME": "KAZSTSAT", "OBJECT_ID": "2018-099AB", "EPOCH": "2025-12-26T01:58:17.402304", "MEAN_MOTION": 14.99373179, "ECCENTRICITY": 0.0006382, "INCLINATION": 97.4511, "RA_OF_ASC_NODE": 34.6913, "ARG_OF_PERICENTER": 270.6948, "MEAN_ANOMALY": 89.3544, "EPHEMERIS_TYPE": 0, "CLASSIFICATION_TYPE": "U", "NORAD_CAT_ID": 43783, "ELEMENT_SET_NO": 999, "REV_AT_EPOCH": 38536, "BSTAR": 5.8643e-05, "MEAN_MOTION_DOT": 6.62e-06, "MEAN_MOTION_DDOT": 0}, "tle": {"line1": "1 43783U 18099AB  25360.08214586  .00000662  00000+0  58643-4 0  9995", "line2": "2 43783  97.4511  34.6913 0006382 270.6948  89.3544 14.99373179385366"}}, "geometry": {"type": "Point", "coordinates": [-171.71326527813932, -73.7634416547906]}}, {"type": "Feature", "properties": {"norad_id": 43831, "name": "SAUDISAT 5A", "group": "resource", "lat": 16.79118071411436, "lon": -117.44948489079377, "alt_km": 493.7698283021218, "timestamp": "2025-12-26T09:30:53.285624+00:00", "meta": {"OBJECT_NAME": "SAUDISAT 5A", "OBJECT_ID": "2018-102A", "EPOCH": "2025-12-26T04:04:54.626880", "MEAN_MOTION": 15.25820606, "ECCENTRICITY": 0.001097, "INCLINATION": 97.333, "RA_OF_ASC_NODE": 60.1015, "ARG_OF_PERICENTER": 34.2854, "MEAN_ANOMALY": 325.909, "EPHEMERIS_TYPE": 0, "CLASSIFICATION_TYPE": "U", "NORAD_CAT_ID": 43831, "ELEMENT_SET_NO": 999, "REV_AT_EPOCH": 38927, "BSTAR": 0.00025044, "MEAN_MOTION_DOT": 6.344e-05, "MEAN_MOTION_DDOT": 0}, "tle": {"line1": "1 43831U 18102A   25360.17007670  .00006344  00000+0  25044-3 0  9999", "line2": "2 43831  97.3330  60.1015 0010970  34.2854 325.9090 15.25820606389274"}}, "geometry": {"type": "Point", "coordinates": [-117.44948489079377, 16.79118071411436]}}, {"type": "Feature", "properties": {"norad_id": 43833, "name": "SAUDISAT 5B", "group": "resource", "lat": -51.68197475855823, "lon": -126.30429394218173, "alt_km": 501.9875966933141, "timestamp": "2025-12-26T09:30:53.285635+00:00", "meta": {"OBJECT_NAME": "SAUDISAT 5B", "OBJECT_ID": "2018-102C", "EPOCH": "2025-12-26T05:21:12.187008", "MEAN_MOTION": 15.26166314, "ECCENTRICITY": 0.0011716, "INCLINATION": 97.3425, "RA_OF_ASC_NODE": 62.9163, "ARG_OF_PERICENTER": 36.1639, "MEAN_ANOMALY": 324.039, "EPHEMERIS_TYPE": 0, "CLASSIFICATION_TYPE": "U", "NORAD_CAT_ID": 43833, "ELEMENT_SET_NO": 999, "REV_AT_EPOCH": 38939, "BSTAR": 0.00023141, "MEAN_MOTION_DOT": 5.919e-05, "MEAN_MOTION_DDOT": 0}, "tle": {"line1": "1 43833U 18102C   25360.22305772  .00005919  00000+0  23141-3 0  9994", "line2": "2 43833  97.3425  62.9163 0011716  36.1639 324.0390 15.26166314389392"}}, "geometry": {"type": "Point", "coordinates": [-126.30429394218173, -51.68197475855823]}}, {"type": "Feature", "properties": {"norad_id": 44622, "name": "GAOFEN-10R", "group": "resource", "lat": -31.62551916620443, "lon": 122.97037632165372, "alt_km": 630.6351167247176, "timestamp": "2025-12-26T09:30:53.285648+00:00", "meta": {"OBJECT_NAME": "GAOFEN-10R", "OBJECT_ID": "2019-066A", "EPOCH": "2025-12-26T03:42:12.790944", "MEAN_MOTION": 14.82836413, "ECCENTRICITY": 0.0006916, "INCLINATION": 98.0296, "RA_OF_ASC_NODE": 307.7143, "ARG_OF_PERICENTER": 2.1593, "MEAN_ANOMALY": 357.9648, "EPHEMERIS_TYPE": 0, "CLASSIFICATION_TYPE": "U", "NORAD_CAT_ID": 44622, "ELEMENT_SET_NO": 999, "REV_AT_EPOCH": 33673, "BSTAR": 0.00020869, "MEAN_MOTION_DOT": 1.635e-05, "MEAN_MOTION_DDOT": 0}, "tle": {"line1": "1 44622U 19066A   25360.15431471  .00001635  00000+0  20869-3 0  9994", "line2": "2 44622  98.0296 307.7143 0006916   2.1593 357.9648 14.82836413336735"}}, "geometry": {"type": "Point", "coordinates": [122.97037632165372, -31.62551916620443]}}]}